COSMOS 2433 (720)       
1 32275U 07052A   23260.17173818 -.00000063  00000+0  00000+0 0  9990
2 32275  66.0183 349.5093 0004129 223.8858 136.1319  2.13104208123663
COSMOS 2432 (719)       
1 32276U 07052B   23260.26477593 -.00000062  00000+0  00000+0 0  9997
2 32276  66.0327 349.6150 0008514 317.1096  61.3051  2.13103327123698
COSMOS 2434 (721)       
1 32393U 07065A   23260.40219551  .00000045  00000+0  00000+0 0  9995
2 32393  64.3360 225.8615 0000557  69.9508 358.0820  2.13103104122384
COSMOS 2436 (723)       
1 32395U 07065C   23260.36829326  .00000045  00000+0  00000+0 0  9999
2 32395  64.3447 225.9245 0015877 353.8563 183.6704  2.13102789122335
COSMOS 2456 (730)       
1 36111U 09070A   23258.88498536  .00000054  00000+0  00000+0 0  9996
2 36111  64.4950 105.4096 0001848 338.1285 164.9608  2.13099270107003
COSMOS 2457 (733)       
1 36112U 09070B   23258.78785272  .00000054  00000+0  00000+0 0  9992
2 36112  64.4789 105.2780 0006008 146.7165  52.7326  2.13101443107002
COSMOS 2460 (732)       
1 36402U 10007C   23258.76588176 -.00000067  00000+0  00000+0 0  9993
2 36402  65.8809 348.2695 0001562 190.7746 340.3458  2.13106417105309
COSMOS 2476 (744)       
1 37867U 11064A   23259.53312678  .00000054  00000+0  00000+0 0  9996
2 37867  64.7748 106.9192 0021184 231.5363 318.1934  2.13101799 92357
COSMOS 2477 (745)       
1 37868U 11064B   23260.26529000  .00000052  00000+0  00000+0 0  9996
2 37868  64.7823 106.9640 0018399 231.7213 337.5781  2.13101677 92361
COSMOS 2475 (743)       
1 37869U 11064C   23260.27935618  .00000052  00000+0  00000+0 0  9994
2 37869  64.7895 106.9758 0022462 250.1427 288.4415  2.13102028 92379
COSMOS 2485 (747)       
1 39155U 13019A   23260.16634587  .00000053  00000+0  00000+0 0  9996
2 39155  64.9352 107.4242 0021711 227.4046 132.5025  2.13101970 80887
COSMOS 2492 (754)       
1 39620U 14012A   23259.65254675 -.00000063  00000+0  00000+0 0  9997
2 39620  65.7641 347.8566 0011643 314.6502  45.3067  2.13103232 73839
COSMOS 2500 (755)       
1 40001U 14032A   23258.42790651 -.00000068  00000+0  00000+0 0  9992
2 40001  65.7026 347.7243 0008219 201.0830 158.9311  2.13106018 72028
COSMOS 2501 (702K)      
1 40315U 14075A   23260.08567142  .00000041  00000+0  00000+0 0  9999
2 40315  63.6395 225.2151 0019813 210.9932 148.8677  2.13101342 68454
COSMOS 2514 (751)       
1 41330U 16008A   23259.59782068 -.00000063  00000+0  00000+0 0  9990
2 41330  65.4995 347.2632 0012021 209.2312 150.7538  2.13102731 59219
COSMOS 2516 (753)       
1 41554U 16032A   23259.71215763  .00000038  00000+0  00000+0 0  9993
2 41554  63.8659 225.6324 0015361 214.3359 145.5419  2.13106459 56826
COSMOS 2522 (752)       
1 42939U 17055A   23259.43949265  .00000035  00000+0  00000+0 0  9994
2 42939  64.1000 226.1706 0009492 243.3346 116.5449  2.13102035 46561
COSMOS 2527 (756)       
1 43508U 18053A   23259.39827461  .00000055  00000+0  00000+0 0  9996
2 43508  65.0962 107.5451 0007373 216.4700 143.5733  2.13102472 40869
COSMOS 2529 (757)       
1 43687U 18086A   23259.96674566  .00000041  00000+0  00000+0 0  9994
2 43687  64.3153 226.5915 0011153 262.7711  97.0800  2.13102076 37881
COSMOS 2534 (758)       
1 44299U 19030A   23260.49118459  .00000047  00000+0  00000+0 0  9994
2 44299  64.3878 226.5012 0013333 282.0167 254.4444  2.13101991 33531
COSMOS 2544 (759)       
1 44850U 19088A   23259.34201610  .00000055  00000+0  00000+0 0  9993
2 44850  65.0822 107.3896 0011206 250.6864 109.2858  2.13102243 29306
COSMOS 2545 (760)       
1 45358U 20018A   23259.06953438 -.00000067  00000+0  00000+0 0  9997
2 45358  64.8399 347.5166 0010349 238.3396 121.6096  2.13102635 27242
COSMOS 2547 (705K)      
1 46805U 20075A   23260.19693954  .00000044  00000+0  00000+0 0  9992
2 46805  64.6153 226.0711 0008320 244.0008 115.8920  2.13102909 22513
COSMOS 2557 (706K)      
1 52984U 22075A   23258.48256362 -.00000071  00000+0  00000+0 0  9997
2 52984  64.7571 349.6949 0012138 275.2883  84.6182  2.13102412  9288
COSMOS 2559 (707K)      
1 54031U 22130A   23260.30163224 -.00000064  00000+0  00000+0 0  9994
2 54031  64.7279 349.7588 0007355 218.9461 141.0510  2.13101601  7290
COSMOS 2564 (761)       
1 54377U 22161A   23260.02539842  .00000042  00000+0  00000+0 0  9998
2 54377  64.7561 226.1321 0010603 225.8876 134.0033  2.13102198  6234
